{
"type": "FeatureCollection",
"name": "tunnelnodes",
"crs": { "type": "name", "properties": { "name": "urn:ogc:def:crs:OGC:1.3:CRS84" } },
"features": [
{ "type": "Feature", "properties": { "fid": 1, "path_id": "P001", "type": "tunnel", "level": -1, "vertex_index": 0, "vertex_part": 0, "vertex_part_index": 0, "distance": 0.0, "angle": 180.0 }, "geometry": { "type": "Point", "coordinates": [ 20.552333506448349, -49.279405429844488 ] } },
{ "type": "Feature", "properties": { "fid": 2, "path_id": "P001", "type": "tunnel", "level": -1, "vertex_index": 1, "vertex_part": 0, "vertex_part_index": 1, "distance": 27.437915507991409, "angle": 134.57245130186664 }, "geometry": { "type": "Point", "coordinates": [ 20.552333506448349, -76.717320937835893 ] } },
{ "type": "Feature", "properties": { "fid": 3, "path_id": "P001", "type": "tunnel", "level": -1, "vertex_index": 2, "vertex_part": 0, "vertex_part_index": 2, "distance": 54.277989788235537, "angle": 44.903764592963427 }, "geometry": { "type": "Point", "coordinates": [ 47.38941874784139, -76.316767426770326 ] } },
{ "type": "Feature", "properties": { "fid": 5, "path_id": "P002", "type": "tunnel", "level": -1, "vertex_index": 0, "vertex_part": 0, "vertex_part_index": 0, "distance": 0.0, "angle": 90.848764271553605 }, "geometry": { "type": "Point", "coordinates": [ 20.552333506448349, -49.279405429844488 ] } },
{ "type": "Feature", "properties": { "fid": 6, "path_id": "P002", "type": "tunnel", "level": -1, "vertex_index": 1, "vertex_part": 0, "vertex_part_index": 1, "distance": 27.040328897186811, "angle": 135.31393049719355 }, "geometry": { "type": "Point", "coordinates": [ 47.589695503374173, -49.679958940910062 ] } },
{ "type": "Feature", "properties": { "fid": 8, "path_id": "P002", "type": "tunnel", "level": -1, "vertex_index": 3, "vertex_part": 0, "vertex_part_index": 3, "distance": 82.476490046177958, "angle": 89.087196653661081 }, "geometry": { "type": "Point", "coordinates": [ 96.056670342307896, -55.898111253958604 ] } },
{ "type": "Feature", "properties": { "fid": 9, "path_id": "P003", "type": "tunnel", "level": -1, "vertex_index": 0, "vertex_part": 0, "vertex_part_index": 0, "distance": 0.0, "angle": 180.0 }, "geometry": { "type": "Point", "coordinates": [ 96.056670342307896, -55.898111253958604 ] } },
{ "type": "Feature", "properties": { "fid": 10, "path_id": "P003", "type": "tunnel", "level": -1, "vertex_index": 1, "vertex_part": 0, "vertex_part_index": 1, "distance": 29.831663682852572, "angle": 224.86858858338172 }, "geometry": { "type": "Point", "coordinates": [ 96.056670342307896, -85.729774936811168 ] } },
{ "type": "Feature", "properties": { "fid": 11, "path_id": "P003", "type": "tunnel", "level": -1, "vertex_index": 2, "vertex_part": 0, "vertex_part_index": 2, "distance": 73.492455736939803, "angle": 224.71118417968719 }, "geometry": { "type": "Point", "coordinates": [ 52.396337636160993, -85.930051692343952 ] } },
{ "type": "Feature", "properties": { "fid": 12, "path_id": "P003", "type": "tunnel", "level": -1, "vertex_index": 3, "vertex_part": 0, "vertex_part_index": 3, "distance": 109.94337545062074, "angle": 179.68519119261089 }, "geometry": { "type": "Point", "coordinates": [ 52.596614391693777, -122.380421199310632 ] } },
{ "type": "Feature", "properties": { "fid": 13, "path_id": "P003", "type": "tunnel", "level": -1, "vertex_index": 0, "vertex_part": 0, "vertex_part_index": 0, "distance": 0.0, "angle": 270.0802091191174 }, "geometry": { "type": "Point", "coordinates": [ 52.583381492579797, -122.008166559645773 ] } },
{ "type": "Feature", "properties": { "fid": 14, "path_id": "P003", "type": "tunnel", "level": -1, "vertex_index": 1, "vertex_part": 0, "vertex_part_index": 1, "distance": 20.214739217682499, "angle": 315.63684927154969 }, "geometry": { "type": "Point", "coordinates": [ 32.368662082882601, -121.979867688245051 ] } },
{ "type": "Feature", "properties": { "fid": 15, "path_id": "P003", "type": "tunnel", "level": -1, "vertex_index": 2, "vertex_part": 0, "vertex_part_index": 2, "distance": 29.83010947313976, "angle": 315.342442973456 }, "geometry": { "type": "Point", "coordinates": [ 32.568938838415384, -112.366583422671425 ] } },
{ "type": "Feature", "properties": { "fid": 16, "path_id": "P003", "type": "tunnel", "level": -1, "vertex_index": 3, "vertex_part": 0, "vertex_part_index": 3, "distance": 48.841615616955622, "angle": 269.49139652293002 }, "geometry": { "type": "Point", "coordinates": [ 13.558181720890488, -112.535342644120703 ] } },
{ "type": "Feature", "properties": { "fid": 17, "path_id": "P005", "type": "tunnel", "level": -1, "vertex_index": 0, "vertex_part": 0, "vertex_part_index": 0, "distance": 0.0, "angle": 180.19169829004335 }, "geometry": { "type": "Point", "coordinates": [ 52.607004494862899, -122.008166559645829 ] } },
{ "type": "Feature", "properties": { "fid": 18, "path_id": "P005", "type": "tunnel", "level": -1, "vertex_index": 1, "vertex_part": 0, "vertex_part_index": 1, "distance": 106.64536492273103, "angle": 224.949437433409 }, "geometry": { "type": "Point", "coordinates": [ 52.250194689170733, -228.652934580702691 ] } },
{ "type": "Feature", "properties": { "fid": 19, "path_id": "P005", "type": "tunnel", "level": -1, "vertex_index": 2, "vertex_part": 0, "vertex_part_index": 2, "distance": 128.755703132685, "angle": 269.70717657677466 }, "geometry": { "type": "Point", "coordinates": [ 30.140145235076954, -228.765934120869161 ] } },
{ "type": "Feature", "properties": { "fid": 20, "path_id": "P006", "type": "tunnel", "level": -1, "vertex_index": 0, "vertex_part": 0, "vertex_part_index": 0, "distance": 0.0, "angle": 179.66743432468854 }, "geometry": { "type": "Point", "coordinates": [ 30.132941598971513, -228.765934120869161 ] } },
{ "type": "Feature", "properties": { "fid": 21, "path_id": "P006", "type": "tunnel", "level": -1, "vertex_index": 1, "vertex_part": 0, "vertex_part_index": 1, "distance": 29.083870275918478, "angle": 224.86934041705877 }, "geometry": { "type": "Point", "coordinates": [ 30.301754079231884, -257.849314470700619 ] } },
{ "type": "Feature", "properties": { "fid": 22, "path_id": "P006", "type": "tunnel", "level": -1, "vertex_index": 2, "vertex_part": 0, "vertex_part_index": 2, "distance": 37.693426199253942, "angle": 224.71375039762685 }, "geometry": { "type": "Point", "coordinates": [ 21.692204812192301, -257.838608609738344 ] } },
{ "type": "Feature", "properties": { "fid": 23, "path_id": "P006", "type": "tunnel", "level": -1, "vertex_index": 3, "vertex_part": 0, "vertex_part_index": 3, "distance": 75.117454326801777, "angle": 225.12096698815816 }, "geometry": { "type": "Point", "coordinates": [ 22.112672969736536, -295.260274631175491 ] } },
{ "type": "Feature", "properties": { "fid": 24, "path_id": "P006", "type": "tunnel", "level": -1, "vertex_index": 4, "vertex_part": 0, "vertex_part_index": 4, "distance": 84.350146878887301, "angle": 270.88567969049171 }, "geometry": { "type": "Point", "coordinates": [ 12.881083474352344, -295.117561106772939 ] } },
{ "type": "Feature", "properties": { "fid": 25, "path_id": "P007", "type": "tunnel", "level": -1, "vertex_index": 0, "vertex_part": 0, "vertex_part_index": 0, "distance": 0.0, "angle": 0.61020499856263999 }, "geometry": { "type": "Point", "coordinates": [ 12.881083474352344, -295.117561106772939 ] } },
{ "type": "Feature", "properties": { "fid": 26, "path_id": "P007", "type": "tunnel", "level": -1, "vertex_index": 1, "vertex_part": 0, "vertex_part_index": 1, "distance": 57.464682975195259, "angle": 315.92778463266552 }, "geometry": { "type": "Point", "coordinates": [ 13.493075740079661, -237.656137047614919 ] } },
{ "type": "Feature", "properties": { "fid": 27, "path_id": "P007", "type": "tunnel", "level": -1, "vertex_index": 2, "vertex_part": 0, "vertex_part_index": 2, "distance": 67.137735481821622, "angle": 271.24536426676832 }, "geometry": { "type": "Point", "coordinates": [ 3.822308116562198, -237.445902968842802 ] } },
{ "type": "Feature", "properties": { "fid": 28, "path_id": "P008", "type": "tunnel", "level": -1, "vertex_index": 0, "vertex_part": 0, "vertex_part_index": 0, "distance": 0.0, "angle": 89.933910513642701 }, "geometry": { "type": "Point", "coordinates": [ 30.281969104098572, -257.849314470700563 ] } },
{ "type": "Feature", "properties": { "fid": 29, "path_id": "P008", "type": "tunnel", "level": -1, "vertex_index": 1, "vertex_part": 0, "vertex_part_index": 1, "distance": 9.2813671133057998, "angle": 134.96847715080324 }, "geometry": { "type": "Point", "coordinates": [ 39.563330042910053, -257.838608609738344 ] } },
{ "type": "Feature", "properties": { "fid": 30, "path_id": "P008", "type": "tunnel", "level": -1, "vertex_index": 2, "vertex_part": 0, "vertex_part_index": 2, "distance": 32.407115810871332, "angle": 180.00304378796378 }, "geometry": { "type": "Point", "coordinates": [ 39.562101507822398, -280.964357274671443 ] } },
{ "type": "Feature", "properties": { "fid": 31, "path_id": "P010", "type": "tunnel", "level": -1, "vertex_index": 0, "vertex_part": 0, "vertex_part_index": 0, "distance": 0.0, "angle": 89.938739934906735 }, "geometry": { "type": "Point", "coordinates": [ 39.568541807295823, -280.974240718702561 ] } },
{ "type": "Feature", "properties": { "fid": 32, "path_id": "P010", "type": "tunnel", "level": -1, "vertex_index": 1, "vertex_part": 0, "vertex_part_index": 1, "distance": 9.2438644501392595, "angle": 135.39063209782356 }, "geometry": { "type": "Point", "coordinates": [ 48.812400973795626, -280.964357274671443 ] } },
{ "type": "Feature", "properties": { "fid": 33, "path_id": "P010", "type": "tunnel", "level": -1, "vertex_index": 2, "vertex_part": 0, "vertex_part_index": 2, "distance": 23.541327561889918, "angle": 225.4212621303702 }, "geometry": { "type": "Point", "coordinates": [ 48.602166895023508, -295.260274631175491 ] } },
{ "type": "Feature", "properties": { "fid": 34, "path_id": "P010", "type": "tunnel", "level": -1, "vertex_index": 3, "vertex_part": 0, "vertex_part_index": 3, "distance": 41.411224257520018, "angle": 270.75861566920713 }, "geometry": { "type": "Point", "coordinates": [ 30.732270199393405, -295.260274631175491 ] } },
{ "type": "Feature", "properties": { "fid": 35, "path_id": "P010", "type": "tunnel", "level": -1, "vertex_index": 4, "vertex_part": 0, "vertex_part_index": 4, "distance": 41.646446215360712, "angle": 271.51723133841426 }, "geometry": { "type": "Point", "coordinates": [ 30.497130708673204, -295.254046521169073 ] } },
{ "type": "Feature", "properties": { "fid": 36, "path_id": "P011", "type": "tunnel", "level": -1, "vertex_index": 0, "vertex_part": 0, "vertex_part_index": 0, "distance": 0.0, "angle": 179.41859140945803 }, "geometry": { "type": "Point", "coordinates": [ 30.497130708673204, -295.254046521169073 ] } },
{ "type": "Feature", "properties": { "fid": 37, "path_id": "P011", "type": "tunnel", "level": -1, "vertex_index": 1, "vertex_part": 0, "vertex_part_index": 1, "distance": 25.43845035480879, "angle": 134.35282741983818 }, "geometry": { "type": "Point", "coordinates": [ 30.755262806115223, -320.691187167757903 ] } },
{ "type": "Feature", "properties": { "fid": 39, "path_id": "P011", "type": "tunnel", "level": -1, "vertex_index": 3, "vertex_part": 0, "vertex_part_index": 3, "distance": 66.215109589696667, "angle": 3.1798301198642398 }, "geometry": { "type": "Point", "coordinates": [ 64.369722802932415, -312.709703169261388 ] } },
{ "type": "Feature", "properties": { "fid": 40, "path_id": "P012", "type": "tunnel", "level": -1, "vertex_index": 0, "vertex_part": 0, "vertex_part_index": 0, "distance": 0.0, "angle": 179.30345344235931 }, "geometry": { "type": "Point", "coordinates": [ 30.755262806115219, -320.686240923974538 ] } },
{ "type": "Feature", "properties": { "fid": 41, "path_id": "P012", "type": "tunnel", "level": -1, "vertex_index": 1, "vertex_part": 0, "vertex_part_index": 1, "distance": 11.135811530872751, "angle": 134.24635911154846 }, "geometry": { "type": "Point", "coordinates": [ 30.890637875501454, -331.821229565266776 ] } },
{ "type": "Feature", "properties": { "fid": 43, "path_id": "P012", "type": "tunnel", "level": -1, "vertex_index": 3, "vertex_part": 0, "vertex_part_index": 3, "distance": 72.138863583836581, "angle": 181.43209618416464 }, "geometry": { "type": "Point", "coordinates": [ 81.961755698669663, -340.776828425253598 ] } },
{ "type": "Feature", "properties": { "fid": 44, "path_id": "P013", "type": "tunnel", "level": -1, "vertex_index": 0, "vertex_part": 0, "vertex_part_index": 0, "distance": 0.0, "angle": 179.80208790453972 }, "geometry": { "type": "Point", "coordinates": [ 30.890637875501447, -331.821229565266776 ] } },
{ "type": "Feature", "properties": { "fid": 45, "path_id": "P013", "type": "tunnel", "level": -1, "vertex_index": 1, "vertex_part": 0, "vertex_part_index": 1, "distance": 140.14385606895118, "angle": 179.80208790453972 }, "geometry": { "type": "Point", "coordinates": [ 31.3747243003656, -471.964249563439239 ] } },
{ "type": "Feature", "properties": { "fid": 46, "path_id": "P014", "type": "tunnel", "level": -1, "vertex_index": 0, "vertex_part": 0, "vertex_part_index": 0, "distance": 0.0, "angle": 89.919445758010085 }, "geometry": { "type": "Point", "coordinates": [ 39.56854180729573, -257.840658544079815 ] } },
{ "type": "Feature", "properties": { "fid": 47, "path_id": "P014", "type": "tunnel", "level": -1, "vertex_index": 1, "vertex_part": 0, "vertex_part_index": 1, "distance": 227.57798338361991, "angle": 134.35103915723141 }, "geometry": { "type": "Point", "coordinates": [ 267.14630026901574, -257.520698399346941 ] } },
{ "type": "Feature", "properties": { "fid": 48, "path_id": "P014", "type": "tunnel", "level": -1, "vertex_index": 2, "vertex_part": 0, "vertex_part_index": 2, "distance": 249.35928086878755, "angle": 224.17301740872691 }, "geometry": { "type": "Point", "coordinates": [ 267.609054204190784, -279.297079616914971 ] } },
{ "type": "Feature", "properties": { "fid": 49, "path_id": "P014", "type": "tunnel", "level": -1, "vertex_index": 3, "vertex_part": 0, "vertex_part_index": 3, "distance": 468.16228651452786, "angle": 269.56340226100116 }, "geometry": { "type": "Point", "coordinates": [ 48.812400973795626, -280.964357274671443 ] } },
{ "type": "Feature", "properties": { "fid": 50, "path_id": "P015", "type": "tunnel", "level": -1, "vertex_index": 0, "vertex_part": 0, "vertex_part_index": 0, "distance": 0.0, "angle": 86.054813770962625 }, "geometry": { "type": "Point", "coordinates": [ 267.686277976079623, -279.296911454082306 ] } },
{ "type": "Feature", "properties": { "fid": 51, "path_id": "P015", "type": "tunnel", "level": -1, "vertex_index": 1, "vertex_part": 0, "vertex_part_index": 1, "distance": 7.0359259943771102, "angle": 134.28664131481509 }, "geometry": { "type": "Point", "coordinates": [ 274.705531136609864, -278.812825029218175 ] } },
{ "type": "Feature", "properties": { "fid": 54, "path_id": "P015", "type": "tunnel", "level": -1, "vertex_index": 4, "vertex_part": 0, "vertex_part_index": 4, "distance": 33.910684897120291, "angle": 134.20442986440273 }, "geometry": { "type": "Point", "coordinates": [ 278.500844193516002, -301.565828011257167 ] } },
{ "type": "Feature", "properties": { "fid": 55, "path_id": "P015", "type": "tunnel", "level": -1, "vertex_index": 5, "vertex_part": 0, "vertex_part_index": 5, "distance": 42.627601607730632, "angle": 45.227134108846563 }, "geometry": { "type": "Point", "coordinates": [ 287.214399841070758, -301.323784798825102 ] } },
{ "type": "Feature", "properties": { "fid": 56, "path_id": "P015", "type": "tunnel", "level": -1, "vertex_index": 6, "vertex_part": 0, "vertex_part_index": 6, "distance": 49.409132378676418, "angle": 46.022704244443823 }, "geometry": { "type": "Point", "coordinates": [ 287.456443053502881, -294.546574850726984 ] } },
{ "type": "Feature", "properties": { "fid": 57, "path_id": "P015", "type": "tunnel", "level": -1, "vertex_index": 7, "vertex_part": 0, "vertex_part_index": 7, "distance": 72.645280772155743, "angle": 135.0 }, "geometry": { "type": "Point", "coordinates": [ 310.692591446982192, -294.546574850726984 ] } },
{ "type": "Feature", "properties": { "fid": 58, "path_id": "P015", "type": "tunnel", "level": -1, "vertex_index": 8, "vertex_part": 0, "vertex_part_index": 8, "distance": 98.543904502387946, "angle": 135.0 }, "geometry": { "type": "Point", "coordinates": [ 310.692591446982192, -320.445198580959186 ] } },
{ "type": "Feature", "properties": { "fid": 59, "path_id": "P015", "type": "tunnel", "level": -1, "vertex_index": 9, "vertex_part": 0, "vertex_part_index": 9, "distance": 106.28928730021443, "angle": 90.0 }, "geometry": { "type": "Point", "coordinates": [ 318.437974244808686, -320.445198580959186 ] } },
{ "type": "Feature", "properties": { "fid": 60, "path_id": "P017", "type": "tunnel", "level": -1, "vertex_index": 0, "vertex_part": 0, "vertex_part_index": 0, "distance": 0.0, "angle": 180.096126126771 }, "geometry": { "type": "Point", "coordinates": [ 318.437974244808686, -320.445198580959186 ] } },
{ "type": "Feature", "properties": { "fid": 61, "path_id": "P017", "type": "tunnel", "level": -1, "vertex_index": 1, "vertex_part": 0, "vertex_part_index": 1, "distance": 66.45843352837764, "angle": 180.096126126771 }, "geometry": { "type": "Point", "coordinates": [ 318.326475826186879, -386.903538577895858 ] } },
{ "type": "Feature", "properties": { "fid": 62, "path_id": "P018", "type": "tunnel", "level": -1, "vertex_index": 0, "vertex_part": 0, "vertex_part_index": 0, "distance": 0.0, "angle": 269.72175516498544 }, "geometry": { "type": "Point", "coordinates": [ 318.326456504922135, -386.903548238528231 ] } },
{ "type": "Feature", "properties": { "fid": 63, "path_id": "P018", "type": "tunnel", "level": -1, "vertex_index": 1, "vertex_part": 0, "vertex_part_index": 1, "distance": 46.240302694751783, "angle": 224.86087758249275 }, "geometry": { "type": "Point", "coordinates": [ 272.086699064066011, -387.128103605996216 ] } },
{ "type": "Feature", "properties": { "fid": 64, "path_id": "P018", "type": "tunnel", "level": -1, "vertex_index": 2, "vertex_part": 0, "vertex_part_index": 2, "distance": 52.775469430417878, "angle": 180.0 }, "geometry": { "type": "Point", "coordinates": [ 272.086699064066011, -393.663270341662326 ] } },
{ "type": "Feature", "properties": { "fid": 65, "path_id": "P020", "type": "tunnel", "level": -1, "vertex_index": 0, "vertex_part": 0, "vertex_part_index": 0, "distance": 0.0, "angle": 269.8460238927097 }, "geometry": { "type": "Point", "coordinates": [ 272.086699369250709, -393.663305255316061 ] } },
{ "type": "Feature", "properties": { "fid": 66, "path_id": "P020", "type": "tunnel", "level": -1, "vertex_index": 1, "vertex_part": 0, "vertex_part_index": 1, "distance": 45.020200386865213, "angle": 224.02805664223183 }, "geometry": { "type": "Point", "coordinates": [ 227.066661551699724, -393.784291947878387 ] } },
{ "type": "Feature", "properties": { "fid": 68, "path_id": "P020", "type": "tunnel", "level": -1, "vertex_index": 3, "vertex_part": 0, "vertex_part_index": 3, "distance": 84.962021364510093, "angle": 315.43832988447053 }, "geometry": { "type": "Point", "coordinates": [ 195.116957510665571, -401.287631533272759 ] } },
{ "type": "Feature", "properties": { "fid": 69, "path_id": "P020", "type": "tunnel", "level": -1, "vertex_index": 4, "vertex_part": 0, "vertex_part_index": 4, "distance": 147.16901053580241, "angle": 315.22293627596622 }, "geometry": { "type": "Point", "coordinates": [ 195.601043935529731, -339.082525938229026 ] } },
{ "type": "Feature", "properties": { "fid": 70, "path_id": "P020", "type": "tunnel", "level": -1, "vertex_index": 5, "vertex_part": 0, "vertex_part_index": 5, "distance": 170.16311571684972, "angle": 315.0 }, "geometry": { "type": "Point", "coordinates": [ 172.606938754482428, -339.082525938229026 ] } },
{ "type": "Feature", "properties": { "fid": 71, "path_id": "P020", "type": "tunnel", "level": -1, "vertex_index": 6, "vertex_part": 0, "vertex_part_index": 6, "distance": 178.63462815197241, "angle": 314.69524671166243 }, "geometry": { "type": "Point", "coordinates": [ 172.606938754482428, -330.611013503106335 ] } },
{ "type": "Feature", "properties": { "fid": 72, "path_id": "P020", "type": "tunnel", "level": -1, "vertex_index": 7, "vertex_part": 0, "vertex_part_index": 7, "distance": 201.38797754805896, "angle": 224.69524671166241 }, "geometry": { "type": "Point", "coordinates": [ 149.854876785867191, -330.853056715538401 ] } },
{ "type": "Feature", "properties": { "fid": 73, "path_id": "P020", "type": "tunnel", "level": -1, "vertex_index": 8, "vertex_part": 0, "vertex_part_index": 8, "distance": 211.06970604534203, "angle": 180.0 }, "geometry": { "type": "Point", "coordinates": [ 149.854876785867191, -340.534785212821475 ] } },
{ "type": "Feature", "properties": { "fid": 74, "path_id": "P021", "type": "tunnel", "level": -1, "vertex_index": 0, "vertex_part": 0, "vertex_part_index": 0, "distance": 0.0, "angle": 90.621960953080006 }, "geometry": { "type": "Point", "coordinates": [ 172.606938754482428, -330.611013503106335 ] } },
{ "type": "Feature", "properties": { "fid": 75, "path_id": "P021", "type": "tunnel", "level": -1, "vertex_index": 1, "vertex_part": 0, "vertex_part_index": 1, "distance": 21.872817479126692, "angle": 44.403421504436821 }, "geometry": { "type": "Point", "coordinates": [ 194.478467534748404, -330.848444101781581 ] } },
{ "type": "Feature", "properties": { "fid": 76, "path_id": "P021", "type": "tunnel", "level": -1, "vertex_index": 2, "vertex_part": 0, "vertex_part_index": 2, "distance": 32.281285577929609, "angle": 314.50759877102576 }, "geometry": { "type": "Point", "coordinates": [ 194.148784660937281, -320.445198580959072 ] } },
{ "type": "Feature", "properties": { "fid": 77, "path_id": "P021", "type": "tunnel", "level": -1, "vertex_index": 3, "vertex_part": 0, "vertex_part_index": 3, "distance": 48.98402107997542, "angle": 315.41515774312893 }, "geometry": { "type": "Point", "coordinates": [ 177.447803003123965, -320.203155368527064 ] } },
{ "type": "Feature", "properties": { "fid": 78, "path_id": "P021", "type": "tunnel", "level": -1, "vertex_index": 4, "vertex_part": 0, "vertex_part_index": 4, "distance": 61.086181701579321, "angle": 0.0 }, "geometry": { "type": "Point", "coordinates": [ 177.447803003123965, -308.100994746923163 ] } },
{ "type": "Feature", "properties": { "fid": 79, "path_id": "P022", "type": "tunnel", "level": -1, "vertex_index": 0, "vertex_part": 0, "vertex_part_index": 0, "distance": 0.0, "angle": 90.6902771978652 }, "geometry": { "type": "Point", "coordinates": [ 194.148784660937281, -320.445198580959072 ] } },
{ "type": "Feature", "properties": { "fid": 80, "path_id": "P022", "type": "tunnel", "level": -1, "vertex_index": 1, "vertex_part": 0, "vertex_part_index": 1, "distance": 20.091044670593579, "angle": 45.839018798752541 }, "geometry": { "type": "Point", "coordinates": [ 214.238371292799627, -320.687241793391195 ] } },
{ "type": "Feature", "properties": { "fid": 81, "path_id": "P022", "type": "tunnel", "level": -1, "vertex_index": 2, "vertex_part": 0, "vertex_part_index": 2, "distance": 34.131637416027793, "angle": 0.98776039963988005 }, "geometry": { "type": "Point", "coordinates": [ 214.480414505231721, -306.648735472330713 ] } },
{ "type": "Feature", "properties": { "fid": 82, "path_id": "P023", "type": "tunnel", "level": -1, "vertex_index": 0, "vertex_part": 0, "vertex_part_index": 0, "distance": 0.0, "angle": 179.99998911745558 }, "geometry": { "type": "Point", "coordinates": [ 272.086689708618337, -393.663334237213235 ] } },
{ "type": "Feature", "properties": { "fid": 83, "path_id": "P023", "type": "tunnel", "level": -1, "vertex_index": 1, "vertex_part": 0, "vertex_part_index": 1, "distance": 49.255729834377561, "angle": 179.99998911745558 }, "geometry": { "type": "Point", "coordinates": [ 272.086699064066011, -442.919064071589901 ] } },
{ "type": "Feature", "properties": { "fid": 85, "path_id": "P024", "type": "tunnel", "level": -1, "vertex_index": 1, "vertex_part": 0, "vertex_part_index": 1, "distance": 18.628255453501229, "angle": 135.21433173774059 }, "geometry": { "type": "Point", "coordinates": [ 336.991180905916963, -387.031813218696811 ] } },
{ "type": "Feature", "properties": { "fid": 86, "path_id": "P024", "type": "tunnel", "level": -1, "vertex_index": 2, "vertex_part": 0, "vertex_part_index": 2, "distance": 80.566597609396197, "angle": 180.03413501972753 }, "geometry": { "type": "Point", "coordinates": [ 336.954279995862578, -448.970144382391823 ] } },
{ "type": "Feature", "properties": { "fid": 87, "path_id": "P025", "type": "tunnel", "level": -1, "vertex_index": 0, "vertex_part": 0, "vertex_part_index": 0, "distance": 0.0, "angle": 357.46251468902233 }, "geometry": { "type": "Point", "coordinates": [ 336.927554223745176, -387.161602811073408 ] } },
{ "type": "Feature", "properties": { "fid": 88, "path_id": "P025", "type": "tunnel", "level": -1, "vertex_index": 1, "vertex_part": 0, "vertex_part_index": 1, "distance": 10.33046506298767, "angle": 43.73125734451115 }, "geometry": { "type": "Point", "coordinates": [ 336.470193570998504, -376.841267077632949 ] } },
{ "type": "Feature", "properties": { "fid": 89, "path_id": "P025", "type": "tunnel", "level": -1, "vertex_index": 2, "vertex_part": 0, "vertex_part_index": 2, "distance": 68.904922471550265, "angle": 134.90222601186454 }, "geometry": { "type": "Point", "coordinates": [ 395.044650979561084, -376.841267077632949 ] } },
{ "type": "Feature", "properties": { "fid": 90, "path_id": "P025", "type": "tunnel", "level": -1, "vertex_index": 3, "vertex_part": 0, "vertex_part_index": 3, "distance": 139.82399675597054, "angle": 179.80445202372911 }, "geometry": { "type": "Point", "coordinates": [ 395.286694191993206, -447.759928320231438 ] } },
{ "type": "Feature", "properties": { "fid": 91, "path_id": "P026", "type": "tunnel", "level": -1, "vertex_index": 0, "vertex_part": 0, "vertex_part_index": 0, "distance": 0.0, "angle": 89.975370951343876 }, "geometry": { "type": "Point", "coordinates": [ 395.040139840183656, -376.861973815639601 ] } },
{ "type": "Feature", "properties": { "fid": 92, "path_id": "P026", "type": "tunnel", "level": -1, "vertex_index": 1, "vertex_part": 0, "vertex_part_index": 1, "distance": 48.171114863839222, "angle": 134.06388034267468 }, "geometry": { "type": "Point", "coordinates": [ 443.211250253544392, -376.841267077632949 ] } },
{ "type": "Feature", "properties": { "fid": 93, "path_id": "P026", "type": "tunnel", "level": -1, "vertex_index": 2, "vertex_part": 0, "vertex_part_index": 2, "distance": 55.678357356954137, "angle": 178.15238973400548 }, "geometry": { "type": "Point", "coordinates": [ 443.453293465976458, -384.344606663027321 ] } },
{ "type": "Feature", "properties": { "fid": 94, "path_id": "P027", "type": "tunnel", "level": -1, "vertex_index": 0, "vertex_part": 0, "vertex_part_index": 0, "distance": 0.0, "angle": 89.500435592763722 }, "geometry": { "type": "Point", "coordinates": [ 443.183818493151819, -376.814727811073396 ] } },
{ "type": "Feature", "properties": { "fid": 95, "path_id": "P027", "type": "tunnel", "level": -1, "vertex_index": 1, "vertex_part": 0, "vertex_part_index": 1, "distance": 24.71677892858057, "angle": 134.75021779638186 }, "geometry": { "type": "Point", "coordinates": [ 467.899657921616267, -376.599223865200884 ] } },
{ "type": "Feature", "properties": { "fid": 96, "path_id": "P027", "type": "tunnel", "level": -1, "vertex_index": 2, "vertex_part": 0, "vertex_part_index": 2, "distance": 32.462161726407011, "angle": 180.0 }, "geometry": { "type": "Point", "coordinates": [ 467.899657921616267, -384.344606663027321 ] } },
{ "type": "Feature", "properties": { "fid": 97, "path_id": "P028", "type": "tunnel", "level": -1, "vertex_index": 0, "vertex_part": 0, "vertex_part_index": 0, "distance": 0.0, "angle": 0.43076893716558001 }, "geometry": { "type": "Point", "coordinates": [ 415.214183789955428, -376.861973815639601 ] } },
{ "type": "Feature", "properties": { "fid": 98, "path_id": "P028", "type": "tunnel", "level": -1, "vertex_index": 1, "vertex_part": 0, "vertex_part_index": 1, "distance": 85.948476275103403, "angle": 45.805978925246137 }, "geometry": { "type": "Point", "coordinates": [ 415.860367248719683, -290.91592666424566 ] } },
{ "type": "Feature", "properties": { "fid": 99, "path_id": "P028", "type": "tunnel", "level": -1, "vertex_index": 2, "vertex_part": 0, "vertex_part_index": 2, "distance": 109.43165793242213, "angle": 135.0397413990602 }, "geometry": { "type": "Point", "coordinates": [ 439.338558854631174, -291.400013089109848 ] } },
{ "type": "Feature", "properties": { "fid": 100, "path_id": "P028", "type": "tunnel", "level": -1, "vertex_index": 3, "vertex_part": 0, "vertex_part_index": 3, "distance": 122.02023210233541, "angle": 134.44914694239685 }, "geometry": { "type": "Point", "coordinates": [ 439.580602067063239, -303.986260135577822 ] } },
{ "type": "Feature", "properties": { "fid": 101, "path_id": "P028", "type": "tunnel", "level": -1, "vertex_index": 4, "vertex_part": 0, "vertex_part_index": 4, "distance": 132.42809023691467, "angle": 44.1700791560082 }, "geometry": { "type": "Point", "coordinates": [ 449.988460201642511, -303.986260135577822 ] } },
{ "type": "Feature", "properties": { "fid": 102, "path_id": "P028", "type": "tunnel", "level": -1, "vertex_index": 5, "vertex_part": 0, "vertex_part_index": 5, "distance": 156.8897689345165, "angle": 358.34015831200156 }, "geometry": { "type": "Point", "coordinates": [ 449.279911763871439, -279.534845374545284 ] } },
{ "type": "Feature", "properties": { "fid": 103, "path_id": "P028", "type": "tunnel", "level": -1, "vertex_index": 6, "vertex_part": 0, "vertex_part_index": 6, "distance": 156.93667558605989, "angle": 358.34015831198684 }, "geometry": { "type": "Point", "coordinates": [ 449.2785530821929, -279.487958404680398 ] } },
{ "type": "Feature", "properties": { "fid": 104, "path_id": "P029", "type": "tunnel", "level": -1, "vertex_index": 0, "vertex_part": 0, "vertex_part_index": 0, "distance": 0.0, "angle": 89.5767733416141 }, "geometry": { "type": "Point", "coordinates": [ 449.279911763871439, -279.534845374545284 ] } },
{ "type": "Feature", "properties": { "fid": 105, "path_id": "P029", "type": "tunnel", "level": -1, "vertex_index": 1, "vertex_part": 0, "vertex_part_index": 1, "distance": 64.851768988049699, "angle": 134.78838667080703 }, "geometry": { "type": "Point", "coordinates": [ 514.129911496142881, -279.055809255073882 ] } },
{ "type": "Feature", "properties": { "fid": 107, "path_id": "P029", "type": "tunnel", "level": -1, "vertex_index": 3, "vertex_part": 0, "vertex_part_index": 3, "distance": 95.107170542059293, "angle": 135.25351453045732 }, "geometry": { "type": "Point", "coordinates": [ 517.034430045327781, -306.406692259898591 ] } },
{ "type": "Feature", "properties": { "fid": 108, "path_id": "P029", "type": "tunnel", "level": -1, "vertex_index": 4, "vertex_part": 0, "vertex_part_index": 4, "distance": 122.45912451358195, "angle": 180.50702906091465 }, "geometry": { "type": "Point", "coordinates": [ 516.792386832895772, -333.7575752647233 ] } },
{ "type": "Feature", "properties": { "fid": 109, "path_id": "P030", "type": "tunnel", "level": -1, "vertex_index": 0, "vertex_part": 0, "vertex_part_index": 0, "distance": 0.0, "angle": 104.03624346792634 }, "geometry": { "type": "Point", "coordinates": [ 415.86036724871974, -317.540680031774173 ] } },
{ "type": "Feature", "properties": { "fid": 112, "path_id": "P030", "type": "tunnel", "level": -1, "vertex_index": 3, "vertex_part": 0, "vertex_part_index": 3, "distance": 42.56750436698438, "angle": 44.42711858091247 }, "geometry": { "type": "Point", "coordinates": [ 451.198676263802952, -335.935964176612003 ] } },
{ "type": "Feature", "properties": { "fid": 113, "path_id": "P030", "type": "tunnel", "level": -1, "vertex_index": 4, "vertex_part": 0, "vertex_part_index": 4, "distance": 52.491276076699521, "angle": 45.0 }, "geometry": { "type": "Point", "coordinates": [ 451.198676263802952, -326.012192466896863 ] } },
{ "type": "Feature", "properties": { "fid": 114, "path_id": "P030", "type": "tunnel", "level": -1, "vertex_index": 5, "vertex_part": 0, "vertex_part_index": 5, "distance": 95.090881464745038, "angle": 135.75371787938747 }, "geometry": { "type": "Point", "coordinates": [ 493.79828165184847, -326.012192466896863 ] } },
{ "type": "Feature", "properties": { "fid": 115, "path_id": "P030", "type": "tunnel", "level": -1, "vertex_index": 6, "vertex_part": 0, "vertex_part_index": 6, "distance": 104.29170776508428, "angle": 181.50743575877493 }, "geometry": { "type": "Point", "coordinates": [ 493.556238439416404, -335.20983453931575 ] } },
{ "type": "Feature", "properties": { "fid": 116, "path_id": "P031", "type": "tunnel", "level": -1, "vertex_index": 0, "vertex_part": 0, "vertex_part_index": 0, "distance": 0.0, "angle": 179.54886145321268 }, "geometry": { "type": "Point", "coordinates": [ 219.079235541441193, -56.012988998915105 ] } },
{ "type": "Feature", "properties": { "fid": 117, "path_id": "P031", "type": "tunnel", "level": -1, "vertex_index": 1, "vertex_part": 0, "vertex_part_index": 1, "distance": 30.740440890137041, "angle": 225.01211114000139 }, "geometry": { "type": "Point", "coordinates": [ 219.321278753873287, -86.752476977788874 ] } },
{ "type": "Feature", "properties": { "fid": 118, "path_id": "P031", "type": "tunnel", "level": -1, "vertex_index": 2, "vertex_part": 0, "vertex_part_index": 2, "distance": 154.00929180682718, "angle": 270.47536082679011 }, "geometry": { "type": "Point", "coordinates": [ 96.056670342307896, -85.729774936811168 ] } },
{ "type": "Feature", "properties": { "fid": 119, "path_id": "P032", "type": "tunnel", "level": -1, "vertex_index": 0, "vertex_part": 0, "vertex_part_index": 0, "distance": 0.0, "angle": 89.610238804681956 }, "geometry": { "type": "Point", "coordinates": [ 219.32127875387323, -56.01298899891512 ] } },
{ "type": "Feature", "properties": { "fid": 120, "path_id": "P032", "type": "tunnel", "level": -1, "vertex_index": 1, "vertex_part": 0, "vertex_part_index": 1, "distance": 71.162350988447201, "angle": 44.371093677468231 }, "geometry": { "type": "Point", "coordinates": [ 290.481983208903841, -55.528902574050974 ] } },
{ "type": "Feature", "properties": { "fid": 123, "path_id": "P032", "type": "tunnel", "level": -1, "vertex_index": 4, "vertex_part": 0, "vertex_part_index": 4, "distance": 124.32804666578429, "angle": 1.33221985386957 }, "geometry": { "type": "Point", "coordinates": [ 273.054871913794273, -8.81456257466014 ] } },
{ "type": "Feature", "properties": { "fid": 124, "path_id": "P033", "type": "tunnel", "level": -1, "vertex_index": 0, "vertex_part": 0, "vertex_part_index": 0, "distance": 0.0, "angle": 91.083630208839764 }, "geometry": { "type": "Point", "coordinates": [ 290.482147969284938, -55.52888565411844 ] } },
{ "type": "Feature", "properties": { "fid": 125, "path_id": "P033", "type": "tunnel", "level": -1, "vertex_index": 1, "vertex_part": 0, "vertex_part_index": 1, "distance": 76.25946217011554, "angle": 91.083630208839764 }, "geometry": { "type": "Point", "coordinates": [ 366.727971603881599, -56.971088398972256 ] } },
{ "type": "Feature", "properties": { "fid": 126, "path_id": "P034", "type": "tunnel", "level": -1, "vertex_index": 0, "vertex_part": 0, "vertex_part_index": 0, "distance": 0.0, "angle": 180.18305298584349 }, "geometry": { "type": "Point", "coordinates": [ 366.725595125007999, -56.981161848643431 ] } },
{ "type": "Feature", "properties": { "fid": 127, "path_id": "P034", "type": "tunnel", "level": -1, "vertex_index": 1, "vertex_part": 0, "vertex_part_index": 1, "distance": 75.759912140752505, "angle": 224.97554376727263 }, "geometry": { "type": "Point", "coordinates": [ 366.483551912575933, -132.740687339883493 ] } },
{ "type": "Feature", "properties": { "fid": 128, "path_id": "P034", "type": "tunnel", "level": -1, "vertex_index": 2, "vertex_part": 0, "vertex_part_index": 2, "distance": 135.54507557548479, "angle": 224.54298707776465 }, "geometry": { "type": "Point", "coordinates": [ 306.698878441852969, -132.982730552315559 ] } },
{ "type": "Feature", "properties": { "fid": 129, "path_id": "P034", "type": "tunnel", "level": -1, "vertex_index": 3, "vertex_part": 0, "vertex_part_index": 3, "distance": 155.8781461021438, "angle": 224.96372309175129 }, "geometry": { "type": "Point", "coordinates": [ 306.940921654285034, -153.314360396610027 ] } },
{ "type": "Feature", "properties": { "fid": 130, "path_id": "P034", "type": "tunnel", "level": -1, "vertex_index": 4, "vertex_part": 0, "vertex_part_index": 4, "distance": 178.63149549823029, "angle": 225.73230198647104 }, "geometry": { "type": "Point", "coordinates": [ 284.188859685669854, -153.072317184177933 ] } },
{ "type": "Feature", "properties": { "fid": 131, "path_id": "P034", "type": "tunnel", "level": -1, "vertex_index": 5, "vertex_part": 0, "vertex_part_index": 5, "distance": 194.85019692322527, "angle": 224.94203773259383 }, "geometry": { "type": "Point", "coordinates": [ 283.946816473237732, -169.289212417127089 ] } },
{ "type": "Feature", "properties": { "fid": 132, "path_id": "P034", "type": "tunnel", "level": -1, "vertex_index": 6, "vertex_part": 0, "vertex_part_index": 6, "distance": 237.69799872281544, "angle": 315.07614039149809 }, "geometry": { "type": "Point", "coordinates": [ 241.105167872760148, -170.015342054423314 ] } },
{ "type": "Feature", "properties": { "fid": 135, "path_id": "P034", "type": "tunnel", "level": -1, "vertex_index": 9, "vertex_part": 0, "vertex_part_index": 9, "distance": 272.55459405766646, "angle": 0.0 }, "geometry": { "type": "Point", "coordinates": [ 223.436013365218543, -153.072317184177933 ] } },
{ "type": "Feature", "properties": { "fid": 136, "path_id": "P035", "type": "tunnel", "level": -1, "vertex_index": 0, "vertex_part": 0, "vertex_part_index": 0, "distance": 0.0, "angle": 180.93919094573553 }, "geometry": { "type": "Point", "coordinates": [ 241.105167872760148, -170.015342054423314 ] } },
{ "type": "Feature", "properties": { "fid": 139, "path_id": "P035", "type": "tunnel", "level": -1, "vertex_index": 3, "vertex_part": 0, "vertex_part_index": 3, "distance": 37.767880862956062, "angle": 177.3974377975 }, "geometry": { "type": "Point", "coordinates": [ 223.436013365218543, -189.862885473853623 ] } },
{ "type": "Feature", "properties": { "fid": 140, "path_id": "P036", "type": "tunnel", "level": -1, "vertex_index": 0, "vertex_part": 0, "vertex_part_index": 0, "distance": 0.0, "angle": 180.91060666031385 }, "geometry": { "type": "Point", "coordinates": [ 366.491741581050633, -132.730056720890275 ] } },
{ "type": "Feature", "properties": { "fid": 141, "path_id": "P036", "type": "tunnel", "level": -1, "vertex_index": 1, "vertex_part": 0, "vertex_part_index": 1, "distance": 15.74542795508483, "angle": 225.45530333015691 }, "geometry": { "type": "Point", "coordinates": [ 366.241508700143811, -148.473496147968461 ] } },
{ "type": "Feature", "properties": { "fid": 142, "path_id": "P036", "type": "tunnel", "level": -1, "vertex_index": 2, "vertex_part": 0, "vertex_part_index": 2, "distance": 58.102990130698281, "angle": 225.58456966395377 }, "geometry": { "type": "Point", "coordinates": [ 323.883946524530359, -148.473496147968461 ] } },
{ "type": "Feature", "properties": { "fid": 143, "path_id": "P036", "type": "tunnel", "level": -1, "vertex_index": 3, "vertex_part": 0, "vertex_part_index": 3, "distance": 81.82816409221212, "angle": 180.27905500439448 }, "geometry": { "type": "Point", "coordinates": [ 323.399860099666171, -172.193730966311989 ] } },
{ "type": "Feature", "properties": { "fid": 144, "path_id": "P036", "type": "tunnel", "level": -1, "vertex_index": 4, "vertex_part": 0, "vertex_part_index": 4, "distance": 105.35028049512351, "angle": 179.38897068088141 }, "geometry": { "type": "Point", "coordinates": [ 323.650706330516471, -195.714509785062489 ] } },
{ "type": "Feature", "properties": { "fid": 145, "path_id": "P037", "type": "tunnel", "level": -1, "vertex_index": 0, "vertex_part": 0, "vertex_part_index": 0, "distance": 0.0, "angle": 89.472514476567099 }, "geometry": { "type": "Point", "coordinates": [ 323.650706330516471, -195.714509785062489 ] } },
{ "type": "Feature", "properties": { "fid": 146, "path_id": "P037", "type": "tunnel", "level": -1, "vertex_index": 1, "vertex_part": 0, "vertex_part_index": 1, "distance": 83.499643837341438, "angle": 44.586269657131581 }, "geometry": { "type": "Point", "coordinates": [ 407.146811601164814, -194.945792934927226 ] } },
{ "type": "Feature", "properties": { "fid": 147, "path_id": "P037", "type": "tunnel", "level": -1, "vertex_index": 2, "vertex_part": 0, "vertex_part_index": 2, "distance": 129.73053102850099, "angle": 315.02053355827746 }, "geometry": { "type": "Point", "coordinates": [ 406.904768388732691, -148.715539360400555 ] } },
{ "type": "Feature", "properties": { "fid": 148, "path_id": "P037", "type": "tunnel", "level": -1, "vertex_index": 3, "vertex_part": 0, "vertex_part_index": 3, "distance": 170.39451107741286, "angle": 270.34104227885888 }, "geometry": { "type": "Point", "coordinates": [ 366.241508700143811, -148.473496147968461 ] } },
{ "type": "Feature", "properties": { "fid": 149, "path_id": "P038", "type": "tunnel", "level": -1, "vertex_index": 0, "vertex_part": 0, "vertex_part_index": 0, "distance": 0.0, "angle": 181.46880071438613 }, "geometry": { "type": "Point", "coordinates": [ 306.940921654285034, -153.314360396610027 ] } },
{ "type": "Feature", "properties": { "fid": 150, "path_id": "P038", "type": "tunnel", "level": -1, "vertex_index": 1, "vertex_part": 0, "vertex_part_index": 1, "distance": 18.885575786161951, "angle": 135.73440035719307 }, "geometry": { "type": "Point", "coordinates": [ 306.45683522942079, -172.193730966311989 ] } },
{ "type": "Feature", "properties": { "fid": 151, "path_id": "P038", "type": "tunnel", "level": -1, "vertex_index": 2, "vertex_part": 0, "vertex_part_index": 2, "distance": 35.828600656407332, "angle": 90.0 }, "geometry": { "type": "Point", "coordinates": [ 323.399860099666171, -172.193730966311989 ] } },
{ "type": "Feature", "properties": { "fid": 152, "path_id": "P039", "type": "tunnel", "level": -1, "vertex_index": 0, "vertex_part": 0, "vertex_part_index": 0, "distance": 0.0, "angle": 179.25107821717614 }, "geometry": { "type": "Point", "coordinates": [ 306.45683522942079, -172.193730966311989 ] } },
{ "type": "Feature", "properties": { "fid": 153, "path_id": "P039", "type": "tunnel", "level": -1, "vertex_index": 1, "vertex_part": 0, "vertex_part_index": 1, "distance": 37.03577533052038, "angle": 134.68376644661075 }, "geometry": { "type": "Point", "coordinates": [ 306.940921654284978, -209.226342468419745 ] } },
{ "type": "Feature", "properties": { "fid": 154, "path_id": "P039", "type": "tunnel", "level": -1, "vertex_index": 2, "vertex_part": 0, "vertex_part_index": 2, "distance": 156.12128182572255, "angle": 45.24186514169174 }, "geometry": { "type": "Point", "coordinates": [ 426.026182170866775, -209.468385680851839 ] } },
{ "type": "Feature", "properties": { "fid": 155, "path_id": "P039", "type": "tunnel", "level": -1, "vertex_index": 3, "vertex_part": 0, "vertex_part_index": 3, "distance": 193.88079873668423, "angle": 45.183637803669043 }, "geometry": { "type": "Point", "coordinates": [ 426.268225383298841, -171.709644541447858 ] } },
{ "type": "Feature", "properties": { "fid": 156, "path_id": "P039", "type": "tunnel", "level": -1, "vertex_index": 4, "vertex_part": 0, "vertex_part_index": 4, "distance": 254.39160184470347, "angle": 44.662981551007768 }, "geometry": { "type": "Point", "coordinates": [ 486.779028491318059, -171.709644541447858 ] } },
{ "type": "Feature", "properties": { "fid": 157, "path_id": "P039", "type": "tunnel", "level": -1, "vertex_index": 5, "vertex_part": 0, "vertex_part_index": 5, "distance": 274.96669863577011, "angle": 44.662981551007768 }, "geometry": { "type": "Point", "coordinates": [ 486.536985278885993, -151.135971484721324 ] } },
{ "type": "Feature", "properties": { "fid": 159, "path_id": "P040", "type": "tunnel", "level": -1, "vertex_index": 0, "vertex_part": 0, "vertex_part_index": 0, "distance": 0.0, "angle": 90.0101874387355 }, "geometry": { "type": "Point", "coordinates": [ 366.479930079909082, -132.730056720890275 ] } },
{ "type": "Feature", "properties": { "fid": 160, "path_id": "P040", "type": "tunnel", "level": -1, "vertex_index": 1, "vertex_part": 0, "vertex_part_index": 1, "distance": 59.7882962484749, "angle": 135.00509371936775 }, "geometry": { "type": "Point", "coordinates": [ 426.268225383298841, -132.740687339883465 ] } },
{ "type": "Feature", "properties": { "fid": 161, "path_id": "P040", "type": "tunnel", "level": -1, "vertex_index": 2, "vertex_part": 0, "vertex_part_index": 2, "distance": 98.757253450039286, "angle": 224.53133571194385 }, "geometry": { "type": "Point", "coordinates": [ 426.268225383298841, -171.709644541447858 ] } },
{ "type": "Feature", "properties": { "fid": 162, "path_id": "P040", "type": "tunnel", "level": -1, "vertex_index": 3, "vertex_part": 0, "vertex_part_index": 3, "distance": 117.98128820798397, "angle": 269.06267142388771 }, "geometry": { "type": "Point", "coordinates": [ 407.046763053848281, -172.024125530027504 ] } },
{ "type": "Feature", "properties": { "fid": 163, "path_id": "P041", "type": "tunnel", "level": -1, "vertex_index": 0, "vertex_part": 0, "vertex_part_index": 0, "distance": 0.0, "angle": 90.517680228499742 }, "geometry": { "type": "Point", "coordinates": [ 366.751594606164701, -56.982899900113807 ] } },
{ "type": "Feature", "properties": { "fid": 165, "path_id": "P041", "type": "tunnel", "level": -1, "vertex_index": 2, "vertex_part": 0, "vertex_part_index": 2, "distance": 74.529816760388627, "angle": 45.790018448339417 }, "geometry": { "type": "Point", "coordinates": [ 433.771564968693156, -49.840887081897094 ] } },
{ "type": "Feature", "properties": { "fid": 166, "path_id": "P041", "type": "tunnel", "level": -1, "vertex_index": 3, "vertex_part": 0, "vertex_part_index": 3, "distance": 140.60805705544544, "angle": 134.89506314421624 }, "geometry": { "type": "Point", "coordinates": [ 499.849361962650107, -49.598843869465014 ] } },
{ "type": "Feature", "properties": { "fid": 168, "path_id": "P041", "type": "tunnel", "level": -1, "vertex_index": 5, "vertex_part": 0, "vertex_part_index": 5, "distance": 161.18173011217198, "angle": 135.0 }, "geometry": { "type": "Point", "coordinates": [ 507.110658335612413, -62.911220553229242 ] } },
{ "type": "Feature", "properties": { "fid": 169, "path_id": "P041", "type": "tunnel", "level": -1, "vertex_index": 6, "vertex_part": 0, "vertex_part_index": 6, "distance": 183.20766244349096, "angle": 180.0 }, "geometry": { "type": "Point", "coordinates": [ 507.110658335612413, -84.93715288454824 ] } },
{ "type": "Feature", "properties": { "fid": 170, "path_id": "P042", "type": "tunnel", "level": -1, "vertex_index": 0, "vertex_part": 0, "vertex_part_index": 0, "distance": 0.0, "angle": 89.645146516649163 }, "geometry": { "type": "Point", "coordinates": [ 507.119474172375192, -84.928911601027139 ] } },
{ "type": "Feature", "properties": { "fid": 171, "path_id": "P042", "type": "tunnel", "level": -1, "vertex_index": 1, "vertex_part": 0, "vertex_part_index": 1, "distance": 37.750649314905317, "angle": 44.822105461376552 }, "geometry": { "type": "Point", "coordinates": [ 544.869399475016507, -84.69510967211616 ] } },
{ "type": "Feature", "properties": { "fid": 172, "path_id": "P042", "type": "tunnel", "level": -1, "vertex_index": 2, "vertex_part": 0, "vertex_part_index": 2, "distance": 60.265798587626321, "angle": 359.99906440610391 }, "geometry": { "type": "Point", "coordinates": [ 544.869031820777309, -62.179960402396908 ] } },
{ "type": "Feature", "properties": { "fid": 173, "path_id": "P043", "type": "tunnel", "level": -1, "vertex_index": 0, "vertex_part": 0, "vertex_part_index": 0, "distance": 0.0, "angle": 89.867394195242085 }, "geometry": { "type": "Point", "coordinates": [ 544.869031820777309, -62.191771903538459 ] } },
{ "type": "Feature", "properties": { "fid": 174, "path_id": "P043", "type": "tunnel", "level": -1, "vertex_index": 1, "vertex_part": 0, "vertex_part_index": 1, "distance": 107.46784179883655, "angle": 134.91215553901495 }, "geometry": { "type": "Point", "coordinates": [ 652.336585794858593, -61.94304770350093 ] } },
{ "type": "Feature", "properties": { "fid": 175, "path_id": "P043", "type": "tunnel", "level": -1, "vertex_index": 2, "vertex_part": 0, "vertex_part_index": 2, "distance": 130.2174821050497, "angle": 179.95691688278779 }, "geometry": { "type": "Point", "coordinates": [ 652.353692208905386, -84.692681578196073 ] } },
{ "type": "Feature", "properties": { "fid": 176, "path_id": "P044", "type": "tunnel", "level": -1, "vertex_index": 0, "vertex_part": 0, "vertex_part_index": 0, "distance": 0.0, "angle": 90.001068539290074 }, "geometry": { "type": "Point", "coordinates": [ 544.892654823060298, -84.692681578196058 ] } },
{ "type": "Feature", "properties": { "fid": 177, "path_id": "P044", "type": "tunnel", "level": -1, "vertex_index": 1, "vertex_part": 0, "vertex_part_index": 1, "distance": 130.19599296305498, "angle": 135.00053426964502 }, "geometry": { "type": "Point", "coordinates": [ 675.088647763473887, -84.69510967211616 ] } },
{ "type": "Feature", "properties": { "fid": 178, "path_id": "P044", "type": "tunnel", "level": -1, "vertex_index": 2, "vertex_part": 0, "vertex_part_index": 2, "distance": 164.80817234084196, "angle": 135.0 }, "geometry": { "type": "Point", "coordinates": [ 675.088647763473887, -119.307289049903147 ] } },
{ "type": "Feature", "properties": { "fid": 179, "path_id": "P044", "type": "tunnel", "level": -1, "vertex_index": 3, "vertex_part": 0, "vertex_part_index": 3, "distance": 188.52840715918552, "angle": 90.0 }, "geometry": { "type": "Point", "coordinates": [ 698.808882581817443, -119.307289049903147 ] } },
{ "type": "Feature", "properties": { "fid": 180, "path_id": "P045", "type": "tunnel", "level": -1, "vertex_index": 0, "vertex_part": 0, "vertex_part_index": 0, "distance": 0.0, "angle": 180.71139752716519 }, "geometry": { "type": "Point", "coordinates": [ 698.808326198631789, -119.300379922945041 ] } },
{ "type": "Feature", "properties": { "fid": 181, "path_id": "P045", "type": "tunnel", "level": -1, "vertex_index": 1, "vertex_part": 0, "vertex_part_index": 1, "distance": 116.9227931853047, "angle": 135.4824585104686 }, "geometry": { "type": "Point", "coordinates": [ 697.35662330722505, -236.214160654596242 ] } },
{ "type": "Feature", "properties": { "fid": 182, "path_id": "P045", "type": "tunnel", "level": -1, "vertex_index": 2, "vertex_part": 0, "vertex_part_index": 2, "distance": 171.62509468616588, "angle": 90.253519493772018 }, "geometry": { "type": "Point", "coordinates": [ 752.058389316874468, -236.456203867028307 ] } },
{ "type": "Feature", "properties": { "fid": 183, "path_id": "P046", "type": "tunnel", "level": -1, "vertex_index": 0, "vertex_part": 0, "vertex_part_index": 0, "distance": 0.0, "angle": 179.76383613330896 }, "geometry": { "type": "Point", "coordinates": [ 675.090831906394214, -119.300379922945041 ] } },
{ "type": "Feature", "properties": { "fid": 184, "path_id": "P046", "type": "tunnel", "level": -1, "vertex_index": 1, "vertex_part": 0, "vertex_part_index": 1, "distance": 116.91477389439696, "angle": 134.87726423956946 }, "geometry": { "type": "Point", "coordinates": [ 675.572734188338245, -236.21416065459627 ] } },
{ "type": "Feature", "properties": { "fid": 185, "path_id": "P046", "type": "tunnel", "level": -1, "vertex_index": 2, "vertex_part": 0, "vertex_part_index": 2, "distance": 138.72117455429549, "angle": 89.990692345829984 }, "geometry": { "type": "Point", "coordinates": [ 697.379134560504099, -236.210618222031997 ] } },
{ "type": "Feature", "properties": { "fid": 186, "path_id": "P047", "type": "tunnel", "level": -1, "vertex_index": 0, "vertex_part": 0, "vertex_part_index": 0, "distance": 0.0, "angle": 179.97517588762409 }, "geometry": { "type": "Point", "coordinates": [ 675.563291952056943, -236.204712471461221 ] } },
{ "type": "Feature", "properties": { "fid": 187, "path_id": "P047", "type": "tunnel", "level": -1, "vertex_index": 1, "vertex_part": 0, "vertex_part_index": 1, "distance": 21.786179211711779, "angle": 179.97517588756264 }, "geometry": { "type": "Point", "coordinates": [ 675.572731086120029, -257.99088963836158 ] } },
{ "type": "Feature", "properties": { "fid": 188, "path_id": "P047", "type": "tunnel", "level": -1, "vertex_index": 2, "vertex_part": 0, "vertex_part_index": 2, "distance": 21.793339347505341, "angle": 134.98758794375058 }, "geometry": { "type": "Point", "coordinates": [ 675.572734188338245, -257.998049773483103 ] } },
{ "type": "Feature", "properties": { "fid": 189, "path_id": "P047", "type": "tunnel", "level": -1, "vertex_index": 3, "vertex_part": 0, "vertex_part_index": 3, "distance": 30.990981419924289, "angle": 135.21868193376039 }, "geometry": { "type": "Point", "coordinates": [ 684.770376260757189, -257.998049773483103 ] } },
{ "type": "Feature", "properties": { "fid": 190, "path_id": "P047", "type": "tunnel", "level": -1, "vertex_index": 4, "vertex_part": 0, "vertex_part_index": 4, "distance": 51.844768588374983, "angle": 180.43736386752084 }, "geometry": { "type": "Point", "coordinates": [ 684.611191683638253, -278.851229376062804 ] } },
{ "type": "Feature", "properties": { "fid": 191, "path_id": "P047", "type": "tunnel", "level": -1, "vertex_index": 5, "vertex_part": 0, "vertex_part_index": 5, "distance": 62.699566064123623, "angle": 135.70419289930001 }, "geometry": { "type": "Point", "coordinates": [ 684.528333048325067, -289.705710602085219 ] } },
{ "type": "Feature", "properties": { "fid": 192, "path_id": "P047", "type": "tunnel", "level": -1, "vertex_index": 6, "vertex_part": 0, "vertex_part_index": 6, "distance": 76.982166663987101, "angle": 135.20839567571153 }, "geometry": { "type": "Point", "coordinates": [ 698.80888258181767, -289.947753814517284 ] } },
{ "type": "Feature", "properties": { "fid": 193, "path_id": "P047", "type": "tunnel", "level": -1, "vertex_index": 7, "vertex_part": 0, "vertex_part_index": 7, "distance": 103.85013836597794, "angle": 134.59147329355372 }, "geometry": { "type": "Point", "coordinates": [ 699.068776407030555, -316.814468510932954 ] } },
{ "type": "Feature", "properties": { "fid": 194, "path_id": "P047", "type": "tunnel", "level": -1, "vertex_index": 8, "vertex_part": 0, "vertex_part_index": 8, "distance": 156.59826301764687, "angle": 89.737177166763473 }, "geometry": { "type": "Point", "coordinates": [ 751.816346104442459, -316.57250718204574 ] } },
{ "type": "Feature", "properties": { "fid": 195, "path_id": "P049", "type": "tunnel", "level": -1, "vertex_index": 0, "vertex_part": 0, "vertex_part_index": 0, "distance": 0.0, "angle": 268.66774405051785 }, "geometry": { "type": "Point", "coordinates": [ 684.611191683638253, -278.851229376062804 ] } },
{ "type": "Feature", "properties": { "fid": 196, "path_id": "P049", "type": "tunnel", "level": -1, "vertex_index": 1, "vertex_part": 0, "vertex_part_index": 1, "distance": 19.20946514792471, "angle": 223.59314343981549 }, "geometry": { "type": "Point", "coordinates": [ 665.406919266191039, -279.297852467505891 ] } },
{ "type": "Feature", "properties": { "fid": 197, "path_id": "P049", "type": "tunnel", "level": -1, "vertex_index": 2, "vertex_part": 0, "vertex_part_index": 2, "distance": 47.295865827897522, "angle": 178.51854282911313 }, "geometry": { "type": "Point", "coordinates": [ 666.133048903487179, -307.374865109626796 ] } },
{ "type": "Feature", "properties": { "fid": 198, "path_id": "P050", "type": "tunnel", "level": -1, "vertex_index": 0, "vertex_part": 0, "vertex_part_index": 0, "distance": 0.0, "angle": 178.67349244651149 }, "geometry": { "type": "Point", "coordinates": [ 699.068179223745915, -316.788679009703515 ] } },
{ "type": "Feature", "properties": { "fid": 199, "path_id": "P050", "type": "tunnel", "level": -1, "vertex_index": 1, "vertex_part": 0, "vertex_part_index": 1, "distance": 0.025796414509359999, "angle": 178.67349244652826 }, "geometry": { "type": "Point", "coordinates": [ 699.068776407030555, -316.814468510932954 ] } },
{ "type": "Feature", "properties": { "fid": 200, "path_id": "P050", "type": "tunnel", "level": -1, "vertex_index": 2, "vertex_part": 0, "vertex_part_index": 2, "distance": 9.7102021563215999, "angle": 224.5505324766892 }, "geometry": { "type": "Point", "coordinates": [ 699.292969006681801, -326.49627889176088 ] } },
{ "type": "Feature", "properties": { "fid": 201, "path_id": "P050", "type": "tunnel", "level": -1, "vertex_index": 3, "vertex_part": 0, "vertex_part_index": 3, "distance": 29.920765370722538, "angle": 270.42757250683337 }, "geometry": { "type": "Point", "coordinates": [ 679.082968548994018, -326.345457992822901 ] } },
{ "type": "Feature", "properties": { "fid": 202, "path_id": "P050", "type": "tunnel", "level": -1, "vertex_index": 4, "vertex_part": 0, "vertex_part_index": 4, "distance": 42.144895755960917, "angle": 225.21378625341663 }, "geometry": { "type": "Point", "coordinates": [ 666.859178540783432, -326.254235679328815 ] } },
{ "type": "Feature", "properties": { "fid": 203, "path_id": "P050", "type": "tunnel", "level": -1, "vertex_index": 5, "vertex_part": 0, "vertex_part_index": 5, "distance": 52.794797102972318, "angle": 180.0 }, "geometry": { "type": "Point", "coordinates": [ 666.859178540783432, -336.904137026340209 ] } },
{ "type": "Feature", "properties": { "fid": 204, "path_id": "P051", "type": "tunnel", "level": -1, "vertex_index": 0, "vertex_part": 0, "vertex_part_index": 0, "distance": 0.0, "angle": 180.65998239680707 }, "geometry": { "type": "Point", "coordinates": [ 679.082968548994018, -326.345457992822901 ] } },
{ "type": "Feature", "properties": { "fid": 205, "path_id": "P051", "type": "tunnel", "level": -1, "vertex_index": 1, "vertex_part": 0, "vertex_part_index": 1, "distance": 10.55937955755566, "angle": 180.65998239680707 }, "geometry": { "type": "Point", "coordinates": [ 678.961339162387276, -336.904137026340209 ] } },
{ "type": "Feature", "properties": { "fid": 206, "path_id": "P052", "type": "tunnel", "level": -1, "vertex_index": 0, "vertex_part": 0, "vertex_part_index": 0, "distance": 0.0, "angle": 269.87816455249936 }, "geometry": { "type": "Point", "coordinates": [ 665.429023972604682, -279.298974386415637 ] } },
{ "type": "Feature", "properties": { "fid": 207, "path_id": "P052", "type": "tunnel", "level": -1, "vertex_index": 1, "vertex_part": 0, "vertex_part_index": 1, "distance": 113.29858427581966, "angle": 224.43653927362263 }, "geometry": { "type": "Point", "coordinates": [ 552.130695847979041, -279.539895679938013 ] } },
{ "type": "Feature", "properties": { "fid": 208, "path_id": "P052", "type": "tunnel", "level": -1, "vertex_index": 2, "vertex_part": 0, "vertex_part_index": 2, "distance": 140.89575653853009, "angle": 178.9949139947459 }, "geometry": { "type": "Point", "coordinates": [ 552.614782272843172, -307.132821897194788 ] } },
{ "type": "Feature", "properties": { "fid": 209, "path_id": "P053", "type": "tunnel", "level": -1, "vertex_index": 0, "vertex_part": 0, "vertex_part_index": 0, "distance": 0.0, "angle": 270.74590444868971 }, "geometry": { "type": "Point", "coordinates": [ 552.130695847979041, -279.539895679938013 ] } },
{ "type": "Feature", "properties": { "fid": 210, "path_id": "P053", "type": "tunnel", "level": -1, "vertex_index": 1, "vertex_part": 0, "vertex_part_index": 1, "distance": 8.4553868231763403, "angle": 270.72792649431545 }, "geometry": { "type": "Point", "coordinates": [ 543.67602552857511, -279.429822432805224 ] } },
{ "type": "Feature", "properties": { "fid": 211, "path_id": "P053", "type": "tunnel", "level": -1, "vertex_index": 2, "vertex_part": 0, "vertex_part_index": 2, "distance": 38.080861259464051, "angle": 270.70994853994131 }, "geometry": { "type": "Point", "coordinates": [ 514.052825342467031, -279.0627443635845 ] } },
{ "type": "Feature", "properties": { "fid": 212, "path_id": "P054", "type": "tunnel", "level": -1, "vertex_index": 0, "vertex_part": 0, "vertex_part_index": 0, "distance": 0.0, "angle": 270.20714888622979 }, "geometry": { "type": "Point", "coordinates": [ 675.572731086120029, -257.99088963836158 ] } },
{ "type": "Feature", "properties": { "fid": 213, "path_id": "P054", "type": "tunnel", "level": -1, "vertex_index": 1, "vertex_part": 0, "vertex_part_index": 1, "distance": 131.91440982103617, "angle": 225.08155883434753 }, "geometry": { "type": "Point", "coordinates": [ 543.659183412856237, -257.513963348619029 ] } },
{ "type": "Feature", "properties": { "fid": 214, "path_id": "P054", "type": "tunnel", "level": -1, "vertex_index": 2, "vertex_part": 0, "vertex_part_index": 2, "distance": 153.83027537671907, "angle": 179.95596878246525 }, "geometry": { "type": "Point", "coordinates": [ 543.67602552857511, -279.429822432805224 ] } },
{ "type": "Feature", "properties": { "fid": 215, "path_id": "P055", "type": "tunnel", "level": -1, "vertex_index": 0, "vertex_part": 0, "vertex_part_index": 0, "distance": 0.0, "angle": 269.8570073958557 }, "geometry": { "type": "Point", "coordinates": [ 543.676070205480755, -257.51856628139268 ] } },
{ "type": "Feature", "properties": { "fid": 216, "path_id": "P055", "type": "tunnel", "level": -1, "vertex_index": 1, "vertex_part": 0, "vertex_part_index": 1, "distance": 95.140165567457743, "angle": 223.95028707164596 }, "geometry": { "type": "Point", "coordinates": [ 448.536200927050118, -257.756006561051095 ] } },
{ "type": "Feature", "properties": { "fid": 217, "path_id": "P055", "type": "tunnel", "level": -1, "vertex_index": 2, "vertex_part": 0, "vertex_part_index": 2, "distance": 116.88479289597429, "angle": 178.04356674743627 }, "geometry": { "type": "Point", "coordinates": [ 449.2785530821929, -279.487958404680398 ] } },
{ "type": "Feature", "properties": { "fid": 218, "path_id": "P056", "type": "tunnel", "level": -1, "vertex_index": 0, "vertex_part": 0, "vertex_part_index": 0, "distance": 0.0, "angle": 90.088614872841333 }, "geometry": { "type": "Point", "coordinates": [ 267.160984430247481, -257.521471249938088 ] } },
{ "type": "Feature", "properties": { "fid": 219, "path_id": "P056", "type": "tunnel", "level": -1, "vertex_index": 1, "vertex_part": 0, "vertex_part_index": 1, "distance": 181.40909555208307, "angle": 90.088614872841333 }, "geometry": { "type": "Point", "coordinates": [ 448.569863013699774, -257.802042308789964 ] } },
{ "type": "Feature", "properties": { "fid": 220, "path_id": "P057", "type": "tunnel", "level": -1, "vertex_index": 0, "vertex_part": 0, "vertex_part_index": 0, "distance": 0.0, "angle": 1.36392753160317 }, "geometry": { "type": "Point", "coordinates": [ 654.272931494315458, -336.056985782827837 ] } },
{ "type": "Feature", "properties": { "fid": 221, "path_id": "P057", "type": "tunnel", "level": -1, "vertex_index": 1, "vertex_part": 0, "vertex_part_index": 1, "distance": 10.16869598070644, "angle": 315.43393628560398 }, "geometry": { "type": "Point", "coordinates": [ 654.51497470674758, -325.891170860680631 ] } },
{ "type": "Feature", "properties": { "fid": 222, "path_id": "P057", "type": "tunnel", "level": -1, "vertex_index": 2, "vertex_part": 0, "vertex_part_index": 2, "distance": 66.082773625474204, "angle": 224.14894813019248 }, "geometry": { "type": "Point", "coordinates": [ 598.602992634937777, -326.375257285544762 ] } },
{ "type": "Feature", "properties": { "fid": 223, "path_id": "P057", "type": "tunnel", "level": -1, "vertex_index": 3, "vertex_part": 0, "vertex_part_index": 3, "distance": 89.081973888609539, "angle": 178.79395122078012 }, "geometry": { "type": "Point", "coordinates": [ 599.087079059801908, -349.369362466592065 ] } },
{ "type": "Feature", "properties": { "fid": 224, "path_id": "P058", "type": "tunnel", "level": -1, "vertex_index": 0, "vertex_part": 0, "vertex_part_index": 0, "distance": 0.0, "angle": 270.0 }, "geometry": { "type": "Point", "coordinates": [ 598.602992634937777, -326.375257285544762 ] } },
{ "type": "Feature", "properties": { "fid": 225, "path_id": "P058", "type": "tunnel", "level": -1, "vertex_index": 1, "vertex_part": 0, "vertex_part_index": 1, "distance": 32.560756354012028, "angle": 223.31999175584795 }, "geometry": { "type": "Point", "coordinates": [ 566.042236280925749, -326.375257285544762 ] } },
{ "type": "Feature", "properties": { "fid": 226, "path_id": "P058", "type": "tunnel", "level": -1, "vertex_index": 2, "vertex_part": 0, "vertex_part_index": 2, "distance": 42.986536702682571, "angle": 176.63998351169602 }, "geometry": { "type": "Point", "coordinates": [ 566.653288593903653, -336.783115420124091 ] } },
{ "type": "Feature", "properties": { "fid": 234, "path_id": "P012312", "type": "tunnel", "level": -1, "vertex_index": 0, "vertex_part": 0, "vertex_part_index": 0, "distance": 0.0, "angle": 90.05350244503704 }, "geometry": { "type": "Point", "coordinates": [ 96.056670342307896, -55.898111253958604 ] } },
{ "type": "Feature", "properties": { "fid": 235, "path_id": "P012312", "type": "tunnel", "level": -1, "vertex_index": 1, "vertex_part": 0, "vertex_part_index": 1, "distance": 123.02261883520156, "angle": 90.026751222520204 }, "geometry": { "type": "Point", "coordinates": [ 219.079235541441193, -56.012988998915105 ] } },
{ "type": "Feature", "properties": { "fid": 236, "path_id": "P012312", "type": "tunnel", "level": -1, "vertex_index": 2, "vertex_part": 0, "vertex_part_index": 2, "distance": 123.26466204763361, "angle": 90.000000000001705 }, "geometry": { "type": "Point", "coordinates": [ 219.32127875387323, -56.01298899891512 ] } },
{ "type": "Feature", "properties": { "fid": 237, "path_id": "P012312", "type": "tunnel", "level": -1, "vertex_index": 3, "vertex_part": 0, "vertex_part_index": 3, "distance": 123.26466204763361, "angle": 90.0 }, "geometry": { "type": "Point", "coordinates": [ 219.32127875387323, -56.01298899891512 ] } }
]
}
