{
"type": "FeatureCollection",
"name": "tunnelpaths",
"crs": { "type": "name", "properties": { "name": "urn:ogc:def:crs:OGC:1.3:CRS84" } },
"features": [
{ "type": "Feature", 
"properties": { "fid": 25, "path_id": "P001", "type": "tunnel", "level": -1 }, 
"geometry": { "type": "LineString", "coordinates": [ [ 20.552333506448349, -49.279405429844488 ], [ 20.552333506448349, -76.717320937835893 ], [ 47.38941874784139, -76.316767426770326 ], [ 47.616645262557043, -56.669895119862971 ] ] } },




{ "type": "Feature", "properties": { "fid": 26, "path_id": "P002", "type": "tunnel", "level": -1 }, "geometry": { "type": "LineString", "coordinates": [ [ 20.552333506448349, -49.279405429844488 ], [ 47.589695503374173, -49.679958940910062 ], [ 47.616645262557043, -56.669895119862971 ], [ 96.056670342307896, -55.898111253958604 ] ] } },
{ "type": "Feature", "properties": { "fid": 27, "path_id": "P003", "type": "tunnel", "level": -1 }, "geometry": { "type": "LineString", "coordinates": [ [ 96.056670342307896, -55.898111253958604 ], [ 96.056670342307896, -85.729774936811168 ], [ 52.396337636160993, -85.930051692343952 ], [ 52.596614391693777, -122.380421199310632 ] ] } },
{ "type": "Feature", "properties": { "fid": 28, "path_id": "P003", "type": "tunnel", "level": -1 }, "geometry": { "type": "LineString", "coordinates": [ [ 52.583381492579797, -122.008166559645773 ], [ 32.368662082882601, -121.979867688245051 ], [ 32.568938838415384, -112.366583422671425 ], [ 13.558181720890488, -112.535342644120703 ] ] } },
{ "type": "Feature", "properties": { "fid": 29, "path_id": "P005", "type": "tunnel", "level": -1 }, "geometry": { "type": "LineString", "coordinates": [ [ 52.607004494862899, -122.008166559645829 ], [ 52.250194689170733, -228.652934580702691 ], [ 30.140145235076954, -228.765934120869161 ] ] } },
{ "type": "Feature", "properties": { "fid": 30, "path_id": "P006", "type": "tunnel", "level": -1 }, "geometry": { "type": "LineString", "coordinates": [ [ 30.132941598971513, -228.765934120869161 ], [ 30.301754079231884, -257.849314470700619 ], [ 21.692204812192301, -257.838608609738344 ], [ 22.112672969736536, -295.260274631175491 ], [ 12.881083474352344, -295.117561106772939 ] ] } },
{ "type": "Feature", "properties": { "fid": 31, "path_id": "P007", "type": "tunnel", "level": -1 }, "geometry": { "type": "LineString", "coordinates": [ [ 12.881083474352344, -295.117561106772939 ], [ 13.493075740079661, -237.656137047614919 ], [ 3.822308116562198, -237.445902968842802 ] ] } },
{ "type": "Feature", "properties": { "fid": 32, "path_id": "P008", "type": "tunnel", "level": -1 }, "geometry": { "type": "LineString", "coordinates": [ [ 30.281969104098572, -257.849314470700563 ], [ 39.563330042910053, -257.838608609738344 ], [ 39.562101507822398, -280.964357274671443 ] ] } },
{ "type": "Feature", "properties": { "fid": 33, "path_id": "P010", "type": "tunnel", "level": -1 }, "geometry": { "type": "LineString", "coordinates": [ [ 39.568541807295823, -280.974240718702561 ], [ 48.812400973795626, -280.964357274671443 ], [ 48.602166895023508, -295.260274631175491 ], [ 30.732270199393405, -295.260274631175491 ], [ 30.497130708673204, -295.254046521169073 ] ] } },
{ "type": "Feature", "properties": { "fid": 34, "path_id": "P011", "type": "tunnel", "level": -1 }, "geometry": { "type": "LineString", "coordinates": [ [ 30.497130708673204, -295.254046521169073 ], [ 30.755262806115223, -320.691187167757903 ], [ 63.94925464538818, -320.278130005057619 ], [ 64.369722802932415, -312.709703169261388 ] ] } },
{ "type": "Feature", "properties": { "fid": 35, "path_id": "P012", "type": "tunnel", "level": -1 }, "geometry": { "type": "LineString", "coordinates": [ [ 30.755262806115219, -320.686240923974538 ], [ 30.890637875501454, -331.821229565266776 ], [ 82.203798911101742, -331.095099927970523 ], [ 81.961755698669663, -340.776828425253598 ] ] } },
{ "type": "Feature", "properties": { "fid": 36, "path_id": "P013", "type": "tunnel", "level": -1 }, "geometry": { "type": "LineString", "coordinates": [ [ 30.890637875501447, -331.821229565266776 ], [ 31.3747243003656, -471.964249563439239 ] ] } },
{ "type": "Feature", "properties": { "fid": 37, "path_id": "P014", "type": "tunnel", "level": -1 }, "geometry": { "type": "LineString", "coordinates": [ [ 39.56854180729573, -257.840658544079815 ], [ 267.14630026901574, -257.520698399346941 ], [ 267.609054204190784, -279.297079616914971 ], [ 48.812400973795626, -280.964357274671443 ] ] } },
{ "type": "Feature", "properties": { "fid": 38, "path_id": "P015", "type": "tunnel", "level": -1 }, "geometry": { "type": "LineString", "coordinates": [ [ 267.686277976079623, -279.296911454082306 ], [ 274.705531136609864, -278.812825029218175 ], [ 274.386109582170718, -286.075062415604293 ], [ 278.500844193516002, -286.075062415604293 ], [ 278.500844193516002, -301.565828011257167 ], [ 287.214399841070758, -301.323784798825102 ], [ 287.456443053502881, -294.546574850726984 ], [ 310.692591446982192, -294.546574850726984 ], [ 310.692591446982192, -320.445198580959186 ], [ 318.437974244808686, -320.445198580959186 ] ] } },
{ "type": "Feature", "properties": { "fid": 39, "path_id": "P017", "type": "tunnel", "level": -1 }, "geometry": { "type": "LineString", "coordinates": [ [ 318.437974244808686, -320.445198580959186 ], [ 318.326475826186879, -386.903538577895858 ] ] } },
{ "type": "Feature", "properties": { "fid": 40, "path_id": "P018", "type": "tunnel", "level": -1 }, "geometry": { "type": "LineString", "coordinates": [ [ 318.326456504922135, -386.903548238528231 ], [ 272.086699064066011, -387.128103605996216 ], [ 272.086699064066011, -393.663270341662326 ] ] } },
{ "type": "Feature", "properties": { "fid": 41, "path_id": "P020", "type": "tunnel", "level": -1 }, "geometry": { "type": "LineString", "coordinates": [ [ 272.086699369250709, -393.663305255316061 ], [ 227.066661551699724, -393.784291947878387 ], [ 227.308704764131789, -401.529674745704824 ], [ 195.116957510665571, -401.287631533272759 ], [ 195.601043935529731, -339.082525938229026 ], [ 172.606938754482428, -339.082525938229026 ], [ 172.606938754482428, -330.611013503106335 ], [ 149.854876785867191, -330.853056715538401 ], [ 149.854876785867191, -340.534785212821475 ] ] } },
{ "type": "Feature", "properties": { "fid": 42, "path_id": "P021", "type": "tunnel", "level": -1 }, "geometry": { "type": "LineString", "coordinates": [ [ 172.606938754482428, -330.611013503106335 ], [ 194.478467534748404, -330.848444101781581 ], [ 194.148784660937281, -320.445198580959072 ], [ 177.447803003123965, -320.203155368527064 ], [ 177.447803003123965, -308.100994746923163 ] ] } },
{ "type": "Feature", "properties": { "fid": 43, "path_id": "P022", "type": "tunnel", "level": -1 }, "geometry": { "type": "LineString", "coordinates": [ [ 194.148784660937281, -320.445198580959072 ], [ 214.238371292799627, -320.687241793391195 ], [ 214.480414505231721, -306.648735472330713 ] ] } },
{ "type": "Feature", "properties": { "fid": 44, "path_id": "P023", "type": "tunnel", "level": -1 }, "geometry": { "type": "LineString", "coordinates": [ [ 272.086689708618337, -393.663334237213235 ], [ 272.086699064066011, -442.919064071589901 ] ] } },
{ "type": "Feature", "properties": { "fid": 45, "path_id": "P024", "type": "tunnel", "level": -1 }, "geometry": { "type": "LineString", "coordinates": [ [ 318.363367075608892, -386.903543408211988 ], [ 336.991180905916963, -387.031813218696811 ], [ 336.954279995862578, -448.970144382391823 ] ] } },
{ "type": "Feature", "properties": { "fid": 46, "path_id": "P025", "type": "tunnel", "level": -1 }, "geometry": { "type": "LineString", "coordinates": [ [ 336.927554223745176, -387.161602811073408 ], [ 336.470193570998504, -376.841267077632949 ], [ 395.044650979561084, -376.841267077632949 ], [ 395.286694191993206, -447.759928320231438 ] ] } },
{ "type": "Feature", "properties": { "fid": 47, "path_id": "P026", "type": "tunnel", "level": -1 }, "geometry": { "type": "LineString", "coordinates": [ [ 395.040139840183656, -376.861973815639601 ], [ 443.211250253544392, -376.841267077632949 ], [ 443.453293465976458, -384.344606663027321 ] ] } },
{ "type": "Feature", "properties": { "fid": 48, "path_id": "P027", "type": "tunnel", "level": -1 }, "geometry": { "type": "LineString", "coordinates": [ [ 443.183818493151819, -376.814727811073396 ], [ 467.899657921616267, -376.599223865200884 ], [ 467.899657921616267, -384.344606663027321 ] ] } },
{ "type": "Feature", "properties": { "fid": 49, "path_id": "P028", "type": "tunnel", "level": -1 }, "geometry": { "type": "LineString", "coordinates": [ [ 415.214183789955428, -376.861973815639601 ], [ 415.860367248719683, -290.91592666424566 ], [ 439.338558854631174, -291.400013089109848 ], [ 439.580602067063239, -303.986260135577822 ], [ 449.988460201642511, -303.986260135577822 ], [ 449.279911763871439, -279.534845374545284 ], [ 449.2785530821929, -279.487958404680398 ] ] } },
{ "type": "Feature", "properties": { "fid": 50, "path_id": "P029", "type": "tunnel", "level": -1 }, "geometry": { "type": "LineString", "coordinates": [ [ 449.279911763871439, -279.534845374545284 ], [ 514.129911496142881, -279.055809255073882 ], [ 514.129911496142881, -306.406692259898591 ], [ 517.034430045327781, -306.406692259898591 ], [ 516.792386832895772, -333.7575752647233 ] ] } },
{ "type": "Feature", "properties": { "fid": 51, "path_id": "P030", "type": "tunnel", "level": -1 }, "geometry": { "type": "LineString", "coordinates": [ [ 415.86036724871974, -317.540680031774173 ], [ 421.669404347089596, -318.992939306366623 ], [ 439.096515642199108, -336.178007389044069 ], [ 451.198676263802952, -335.935964176612003 ], [ 451.198676263802952, -326.012192466896863 ], [ 493.79828165184847, -326.012192466896863 ], [ 493.556238439416404, -335.20983453931575 ] ] } },
{ "type": "Feature", "properties": { "fid": 52, "path_id": "P031", "type": "tunnel", "level": -1 }, "geometry": { "type": "LineString", "coordinates": [ [ 219.079235541441193, -56.012988998915105 ], [ 219.321278753873287, -86.752476977788874 ], [ 96.056670342307896, -85.729774936811168 ] ] } },
{ "type": "Feature", "properties": { "fid": 53, "path_id": "P032", "type": "tunnel", "level": -1 }, "geometry": { "type": "LineString", "coordinates": [ [ 219.32127875387323, -56.01298899891512 ], [ 290.481983208903841, -55.528902574050974 ], [ 290.239939996471776, -39.554050553533898 ], [ 272.812828701362207, -19.222420709239447 ], [ 273.054871913794273, -8.81456257466014 ] ] } },
{ "type": "Feature", "properties": { "fid": 54, "path_id": "P033", "type": "tunnel", "level": -1 }, "geometry": { "type": "LineString", "coordinates": [ [ 290.482147969284938, -55.52888565411844 ], [ 366.727971603881599, -56.971088398972256 ] ] } },
{ "type": "Feature", "properties": { "fid": 55, "path_id": "P034", "type": "tunnel", "level": -1 }, "geometry": { "type": "LineString", "coordinates": [ [ 366.725595125007999, -56.981161848643431 ], [ 366.483551912575933, -132.740687339883493 ], [ 306.698878441852969, -132.982730552315559 ], [ 306.940921654285034, -153.314360396610027 ], [ 284.188859685669854, -153.072317184177933 ], [ 283.946816473237732, -169.289212417127089 ], [ 241.105167872760148, -170.015342054423314 ], [ 241.347211085192214, -157.671138220387377 ], [ 223.436013365218543, -157.671138220387377 ], [ 223.436013365218543, -153.072317184177933 ] ] } },
{ "type": "Feature", "properties": { "fid": 56, "path_id": "P035", "type": "tunnel", "level": -1 }, "geometry": { "type": "LineString", "coordinates": [ [ 241.105167872760148, -170.015342054423314 ], [ 240.863124660328083, -184.779978012779992 ], [ 223.193970152786449, -184.537934800347927 ], [ 223.436013365218543, -189.862885473853623 ] ] } },
{ "type": "Feature", "properties": { "fid": 57, "path_id": "P036", "type": "tunnel", "level": -1 }, "geometry": { "type": "LineString", "coordinates": [ [ 366.491741581050633, -132.730056720890275 ], [ 366.241508700143811, -148.473496147968461 ], [ 323.883946524530359, -148.473496147968461 ], [ 323.399860099666171, -172.193730966311989 ], [ 323.650706330516471, -195.714509785062489 ] ] } },
{ "type": "Feature", "properties": { "fid": 58, "path_id": "P037", "type": "tunnel", "level": -1 }, "geometry": { "type": "LineString", "coordinates": [ [ 323.650706330516471, -195.714509785062489 ], [ 407.146811601164814, -194.945792934927226 ], [ 406.904768388732691, -148.715539360400555 ], [ 366.241508700143811, -148.473496147968461 ] ] } },
{ "type": "Feature", "properties": { "fid": 59, "path_id": "P038", "type": "tunnel", "level": -1 }, "geometry": { "type": "LineString", "coordinates": [ [ 306.940921654285034, -153.314360396610027 ], [ 306.45683522942079, -172.193730966311989 ], [ 323.399860099666171, -172.193730966311989 ] ] } },
{ "type": "Feature", "properties": { "fid": 60, "path_id": "P039", "type": "tunnel", "level": -1 }, "geometry": { "type": "LineString", "coordinates": [ [ 306.45683522942079, -172.193730966311989 ], [ 306.940921654284978, -209.226342468419745 ], [ 426.026182170866775, -209.468385680851839 ], [ 426.268225383298841, -171.709644541447858 ], [ 486.779028491318059, -171.709644541447858 ], [ 486.536985278885993, -151.135971484721324 ], [ 489.441503828070893, -151.135971484721324 ] ] } },
{ "type": "Feature", "properties": { "fid": 61, "path_id": "P040", "type": "tunnel", "level": -1 }, "geometry": { "type": "LineString", "coordinates": [ [ 366.479930079909082, -132.730056720890275 ], [ 426.268225383298841, -132.740687339883465 ], [ 426.268225383298841, -171.709644541447858 ], [ 407.046763053848281, -172.024125530027504 ] ] } },
{ "type": "Feature", "properties": { "fid": 62, "path_id": "P041", "type": "tunnel", "level": -1 }, "geometry": { "type": "LineString", "coordinates": [ [ 366.751594606164701, -56.982899900113807 ], [ 433.529521756261033, -57.586269879723552 ], [ 433.771564968693156, -49.840887081897094 ], [ 499.849361962650107, -49.598843869465014 ], [ 499.849361962650107, -62.911220553229242 ], [ 507.110658335612413, -62.911220553229242 ], [ 507.110658335612413, -84.93715288454824 ] ] } },
{ "type": "Feature", "properties": { "fid": 63, "path_id": "P042", "type": "tunnel", "level": -1 }, "geometry": { "type": "LineString", "coordinates": [ [ 507.119474172375192, -84.928911601027139 ], [ 544.869399475016507, -84.69510967211616 ], [ 544.869031820777309, -62.179960402396908 ] ] } },
{ "type": "Feature", "properties": { "fid": 64, "path_id": "P043", "type": "tunnel", "level": -1 }, "geometry": { "type": "LineString", "coordinates": [ [ 544.869031820777309, -62.191771903538459 ], [ 652.336585794858593, -61.94304770350093 ], [ 652.353692208905386, -84.692681578196073 ] ] } },
{ "type": "Feature", "properties": { "fid": 65, "path_id": "P044", "type": "tunnel", "level": -1 }, "geometry": { "type": "LineString", "coordinates": [ [ 544.892654823060298, -84.692681578196058 ], [ 675.088647763473887, -84.69510967211616 ], [ 675.088647763473887, -119.307289049903147 ], [ 698.808882581817443, -119.307289049903147 ] ] } },
{ "type": "Feature", "properties": { "fid": 66, "path_id": "P045", "type": "tunnel", "level": -1 }, "geometry": { "type": "LineString", "coordinates": [ [ 698.808326198631789, -119.300379922945041 ], [ 697.35662330722505, -236.214160654596242 ], [ 752.058389316874468, -236.456203867028307 ] ] } },
{ "type": "Feature", "properties": { "fid": 67, "path_id": "P046", "type": "tunnel", "level": -1 }, "geometry": { "type": "LineString", "coordinates": [ [ 675.090831906394214, -119.300379922945041 ], [ 675.572734188338245, -236.21416065459627 ], [ 697.379134560504099, -236.210618222031997 ] ] } },
{ "type": "Feature", "properties": { "fid": 68, "path_id": "P047", "type": "tunnel", "level": -1 }, "geometry": { "type": "LineString", "coordinates": [ [ 675.563291952056943, -236.204712471461221 ], [ 675.572731086120029, -257.99088963836158 ], [ 675.572734188338245, -257.998049773483103 ], [ 684.770376260757189, -257.998049773483103 ], [ 684.611191683638253, -278.851229376062804 ], [ 684.528333048325067, -289.705710602085219 ], [ 698.80888258181767, -289.947753814517284 ], [ 699.068776407030555, -316.814468510932954 ], [ 751.816346104442459, -316.57250718204574 ] ] } },
{ "type": "Feature", "properties": { "fid": 69, "path_id": "P049", "type": "tunnel", "level": -1 }, "geometry": { "type": "LineString", "coordinates": [ [ 684.611191683638253, -278.851229376062804 ], [ 665.406919266191039, -279.297852467505891 ], [ 666.133048903487179, -307.374865109626796 ] ] } },
{ "type": "Feature", "properties": { "fid": 70, "path_id": "P050", "type": "tunnel", "level": -1 }, "geometry": { "type": "LineString", "coordinates": [ [ 699.068179223745915, -316.788679009703515 ], [ 699.068776407030555, -316.814468510932954 ], [ 699.292969006681801, -326.49627889176088 ], [ 679.082968548994018, -326.345457992822901 ], [ 666.859178540783432, -326.254235679328815 ], [ 666.859178540783432, -336.904137026340209 ] ] } },
{ "type": "Feature", "properties": { "fid": 71, "path_id": "P051", "type": "tunnel", "level": -1 }, "geometry": { "type": "LineString", "coordinates": [ [ 679.082968548994018, -326.345457992822901 ], [ 678.961339162387276, -336.904137026340209 ] ] } },
{ "type": "Feature", "properties": { "fid": 72, "path_id": "P052", "type": "tunnel", "level": -1 }, "geometry": { "type": "LineString", "coordinates": [ [ 665.429023972604682, -279.298974386415637 ], [ 552.130695847979041, -279.539895679938013 ], [ 552.614782272843172, -307.132821897194788 ] ] } },
{ "type": "Feature", "properties": { "fid": 73, "path_id": "P053", "type": "tunnel", "level": -1 }, "geometry": { "type": "LineString", "coordinates": [ [ 552.130695847979041, -279.539895679938013 ], [ 543.67602552857511, -279.429822432805224 ], [ 514.052825342467031, -279.0627443635845 ] ] } },
{ "type": "Feature", "properties": { "fid": 74, "path_id": "P054", "type": "tunnel", "level": -1 }, "geometry": { "type": "LineString", "coordinates": [ [ 675.572731086120029, -257.99088963836158 ], [ 543.659183412856237, -257.513963348619029 ], [ 543.67602552857511, -279.429822432805224 ] ] } },
{ "type": "Feature", "properties": { "fid": 75, "path_id": "P055", "type": "tunnel", "level": -1 }, "geometry": { "type": "LineString", "coordinates": [ [ 543.676070205480755, -257.51856628139268 ], [ 448.536200927050118, -257.756006561051095 ], [ 449.2785530821929, -279.487958404680398 ] ] } },
{ "type": "Feature", "properties": { "fid": 76, "path_id": "P056", "type": "tunnel", "level": -1 }, "geometry": { "type": "LineString", "coordinates": [ [ 267.160984430247481, -257.521471249938088 ], [ 448.569863013699774, -257.802042308789964 ] ] } },
{ "type": "Feature", "properties": { "fid": 77, "path_id": "P057", "type": "tunnel", "level": -1 }, "geometry": { "type": "LineString", "coordinates": [ [ 654.272931494315458, -336.056985782827837 ], [ 654.51497470674758, -325.891170860680631 ], [ 598.602992634937777, -326.375257285544762 ], [ 599.087079059801908, -349.369362466592065 ] ] } },
{ "type": "Feature", "properties": { "fid": 78, "path_id": "P058", "type": "tunnel", "level": -1 }, "geometry": { "type": "LineString", "coordinates": [ [ 598.602992634937777, -326.375257285544762 ], [ 566.042236280925749, -326.375257285544762 ], [ 566.653288593903653, -336.783115420124091 ] ] } },
{ "type": "Feature", "properties": { "fid": 81, "path_id": "P012312", "type": "tunnel", "level": -1 }, "geometry": { "type": "LineString", "coordinates": [ [ 96.056670342307896, -55.898111253958604 ], [ 219.079235541441193, -56.012988998915105 ], [ 219.32127875387323, -56.01298899891512 ], [ 219.32127875387323, -56.01298899891512 ] ] } }
]
}
